{
  "type": "FeatureCollection",
  "features": [
    {
      "type": "Feature",
      "properties": {
        "norad_id": 43262,
        "name": "GAOFEN-1 04",
        "group": "resource",
        "lat": -56.70035748977857,
        "lon": 69.73599414956638,
        "alt_km": 647.885447625129,
        "timestamp": "2025-12-25T09:48:51.943901+00:00",
        "meta_object_name": "GAOFEN-1 04",
        "meta_object_id": "2018-031D",
        "meta_epoch": "2025-12-25T05:11:42.980352",
        "meta_mean_motion": 14.7643222,
        "meta_eccentricity": 5.22e-05,
        "meta_inclination": 98.0787,
        "meta_ra_of_asc_node": 57.0556,
        "meta_arg_of_pericenter": 66.1497,
        "meta_mean_anomaly": 293.9767,
        "meta_ephemeris_type": 0,
        "meta_classification_type": "U",
        "meta_norad_cat_id": 43262,
        "meta_element_set_no": 999,
        "meta_rev_at_epoch": 41701,
        "meta_bstar": 0.00019219,
        "meta_mean_motion_dot": 1.285e-05,
        "meta_mean_motion_ddot": 0,
        "tle_line1": "1 43262U 18031D   25359.21646968  .00001285  00000+0  19219-3 0  9996",
        "tle_line2": "2 43262  98.0787  57.0556 0000522  66.1497 293.9767 14.76432220417015"
      },
      "geometry": {
        "type": "Point",
        "coordinates": [
          69.73599414956638,
          -56.70035748977857
        ]
      }
    },
    {
      "type": "Feature",
      "properties": {
        "norad_id": 43437,
        "name": "SENTINEL-3B",
        "group": "resource",
        "lat": 5.630723366633313,
        "lon": 63.55418096109338,
        "alt_km": 804.6722879853733,
        "timestamp": "2025-12-25T09:48:51.943911+00:00",
        "meta_object_name": "SENTINEL-3B",
        "meta_object_id": "2018-039A",
        "meta_epoch": "2025-12-25T03:03:19.264320",
        "meta_mean_motion": 14.26738745,
        "meta_eccentricity": 0.0001592,
        "meta_inclination": 98.625,
        "meta_ra_of_asc_node": 64.1341,
        "meta_arg_of_pericenter": 89.4651,
        "meta_mean_anomaly": 270.6712,
        "meta_ephemeris_type": 0,
        "meta_classification_type": "U",
        "meta_norad_cat_id": 43437,
        "meta_element_set_no": 999,
        "meta_rev_at_epoch": 39930,
        "meta_bstar": 7.805e-05,
        "meta_mean_motion_dot": 1.45e-06,
        "meta_mean_motion_ddot": 0,
        "tle_line1": "1 43437U 18039A   25359.12730630  .00000145  00000+0  78050-4 0  9991",
        "tle_line2": "2 43437  98.6250  64.1341 0001592  89.4651 270.6712 14.26738745399308"
      },
      "geometry": {
        "type": "Point",
        "coordinates": [
          63.55418096109338,
          5.630723366633313
        ]
      }
    },
    {
      "type": "Feature",
      "properties": {
        "norad_id": 43461,
        "name": "GAOFEN-5 01",
        "group": "resource",
        "lat": 81.47024363217838,
        "lon": -119.02114062637229,
        "alt_km": 684.6835379408767,
        "timestamp": "2025-12-25T09:48:51.943921+00:00",
        "meta_object_name": "GAOFEN-5 01",
        "meta_object_id": "2018-043A",
        "meta_epoch": "2025-12-24T20:15:17.532288",
        "meta_mean_motion": 14.60422427,
        "meta_eccentricity": 5.289e-05,
        "meta_inclination": 98.4345,
        "meta_ra_of_asc_node": 322.0236,
        "meta_arg_of_pericenter": 244.9883,
        "meta_mean_anomaly": 115.1262,
        "meta_ephemeris_type": 0,
        "meta_classification_type": "U",
        "meta_norad_cat_id": 43461,
        "meta_element_set_no": 999,
        "meta_rev_at_epoch": 40624,
        "meta_bstar": 0.00010643871,
        "meta_mean_motion_dot": 4.67e-06,
        "meta_mean_motion_ddot": 0,
        "tle_line1": "1 43461U 18043A   25358.84395292  .00000467  00000+0  10644-3 0  9993",
        "tle_line2": "2 43461  98.4345 322.0236 0000528 244.9883 115.1262 14.60422427406240"
      },
      "geometry": {
        "type": "Point",
        "coordinates": [
          -119.02114062637229,
          81.47024363217838
        ]
      }
    },
    {
      "type": "Feature",
      "properties": {
        "norad_id": 43484,
        "name": "GAOFEN-6",
        "group": "resource",
        "lat": 77.52968398111992,
        "lon": -78.44013963020139,
        "alt_km": 630.3900171488922,
        "timestamp": "2025-12-25T09:48:51.943931+00:00",
        "meta_object_name": "GAOFEN-6",
        "meta_object_id": "2018-048A",
        "meta_epoch": "2025-12-25T04:29:10.433184",
        "meta_mean_motion": 14.76586543,
        "meta_eccentricity": 0.0012542,
        "meta_inclination": 97.8012,
        "meta_ra_of_asc_node": 63.035,
        "meta_arg_of_pericenter": 26.5885,
        "meta_mean_anomaly": 333.5966,
        "meta_ephemeris_type": 0,
        "meta_classification_type": "U",
        "meta_norad_cat_id": 43484,
        "meta_element_set_no": 999,
        "meta_rev_at_epoch": 40771,
        "meta_bstar": 7.3573e-05,
        "meta_mean_motion_dot": 4.65e-06,
        "meta_mean_motion_ddot": 0,
        "tle_line1": "1 43484U 18048A   25359.18692631  .00000465  00000+0  73573-4 0  9997",
        "tle_line2": "2 43484  97.8012  63.0350 0012542  26.5885 333.5966 14.76586543407710"
      },
      "geometry": {
        "type": "Point",
        "coordinates": [
          -78.44013963020139,
          77.52968398111992
        ]
      }
    },
    {
      "type": "Feature",
      "properties": {
        "norad_id": 43585,
        "name": "GAOFEN-11 01",
        "group": "resource",
        "lat": -18.23842042792905,
        "lon": 64.61098654619923,
        "alt_km": 423.33434003826096,
        "timestamp": "2025-12-25T09:48:51.943941+00:00",
        "meta_object_name": "GAOFEN-11 01",
        "meta_object_id": "2018-063A",
        "meta_epoch": "2025-12-25T05:14:38.775840",
        "meta_mean_motion": 15.4957008,
        "meta_eccentricity": 0.0003897,
        "meta_inclination": 97.1536,
        "meta_ra_of_asc_node": 62.0501,
        "meta_arg_of_pericenter": 247.8402,
        "meta_mean_anomaly": 112.2436,
        "meta_ephemeris_type": 0,
        "meta_classification_type": "U",
        "meta_norad_cat_id": 43585,
        "meta_element_set_no": 999,
        "meta_rev_at_epoch": 41335,
        "meta_bstar": 0.00035423,
        "meta_mean_motion_dot": 0.00019488,
        "meta_mean_motion_ddot": 0,
        "tle_line1": "1 43585U 18063A   25359.21850435  .00019488  00000+0  35423-3 0  9994",
        "tle_line2": "2 43585  97.1536  62.0501 0003897 247.8402 112.2436 15.49570080413350"
      },
      "geometry": {
        "type": "Point",
        "coordinates": [
          64.61098654619923,
          -18.23842042792905
        ]
      }
    },
    {
      "type": "Feature",
      "properties": {
        "norad_id": 43613,
        "name": "ICESAT-2",
        "group": "resource",
        "lat": -12.5014431297071,
        "lon": 63.71161945026082,
        "alt_km": 485.52317833317284,
        "timestamp": "2025-12-25T09:48:51.943956+00:00",
        "meta_object_name": "ICESAT-2",
        "meta_object_id": "2018-070A",
        "meta_epoch": "2025-12-25T02:41:21.497568",
        "meta_mean_motion": 15.28231954,
        "meta_eccentricity": 0.0003065,
        "meta_inclination": 92.0035,
        "meta_ra_of_asc_node": 244.0763,
        "meta_arg_of_pericenter": 109.5294,
        "meta_mean_anomaly": 250.6286,
        "meta_ephemeris_type": 0,
        "meta_classification_type": "U",
        "meta_norad_cat_id": 43613,
        "meta_element_set_no": 999,
        "meta_rev_at_epoch": 40587,
        "meta_bstar": 0.00047879,
        "meta_mean_motion_dot": 0.00013173,
        "meta_mean_motion_ddot": 0,
        "tle_line1": "1 43613U 18070A   25359.11205437  .00013173  00000+0  47879-3 0  9992",
        "tle_line2": "2 43613  92.0035 244.0763 0003065 109.5294 250.6286 15.28231954405871"
      },
      "geometry": {
        "type": "Point",
        "coordinates": [
          63.71161945026082,
          -12.5014431297071
        ]
      }
    },
    {
      "type": "Feature",
      "properties": {
        "norad_id": 43719,
        "name": "HYSIS",
        "group": "resource",
        "lat": -49.51267454647528,
        "lon": -127.16766466445578,
        "alt_km": 640.9858652917192,
        "timestamp": "2025-12-25T09:48:51.943967+00:00",
        "meta_object_name": "HYSIS",
        "meta_object_id": "2018-096A",
        "meta_epoch": "2025-12-24T23:01:57.582336",
        "meta_mean_motion": 14.78677949,
        "meta_eccentricity": 8.535e-05,
        "meta_inclination": 98.0079,
        "meta_ra_of_asc_node": 61.8769,
        "meta_arg_of_pericenter": 57.4747,
        "meta_mean_anomaly": 302.6546,
        "meta_ephemeris_type": 0,
        "meta_classification_type": "U",
        "meta_norad_cat_id": 43719,
        "meta_element_set_no": 999,
        "meta_rev_at_epoch": 38167,
        "meta_bstar": 0.00021306259,
        "meta_mean_motion_dot": 1.51e-05,
        "meta_mean_motion_ddot": 0,
        "tle_line1": "1 43719U 18096A   25358.95969424  .00001510  00000+0  21306-3 0  9990",
        "tle_line2": "2 43719  98.0079  61.8769 0000853  57.4747 302.6546 14.78677949381679"
      },
      "geometry": {
        "type": "Point",
        "coordinates": [
          -127.16766466445578,
          -49.51267454647528
        ]
      }
    }
  ]
}